From: horizons@ssd.jpl.nasa.gov (Horizons Ephemeris System)
Subject: [Horizons] SMALL BODY #C(500@10)_T(SWAN (P/2005 T4)) (1/1)
Date: February 16, 2021 at 10:56:12 PM PST

Automated mail xmit by MAIL_REQUEST, PID= 6925 Tue Feb 16 22:56:12 2021
++++++++++++++++++++++++++++++++ (part 1 of 1)  +++++++++++++++++++++++++++++++


*******************************************************************************
Ephemeris / MAIL_REQUEST Tue Feb 16 22:56:12 2021 Pasadena, USA  / Horizons
*******************************************************************************
Target body name: SWAN (P/2005 T4)                {source: JPL#6}
Center body name: Sun (10)                        {source: DE431}
Center-site name: BODY CENTER
*******************************************************************************
Start time      : A.D. 2005-Apr-10 00:00:00.0000 TDB
Stop  time      : A.D. 2006-Apr-10 00:00:00.0000 TDB
Step-size       : 10080 minutes
*******************************************************************************
Center geodetic : 0.00000000,0.00000000,0.0000000 {E-lon(deg),Lat(deg),Alt(km)}
Center cylindric: 0.00000000,0.00000000,0.0000000 {E-lon(deg),Dxy(km),Dz(km)}
Center radii    : 696000.0 x 696000.0 x 696000.0 k{Equator, meridian, pole}    
Small perturbers: Yes                             {source: SB431-N16}
Output units    : AU-D
Output type     : GEOMETRIC cartesian states
Output format   : 6 (LT, range, and range-rate)
Reference frame : Ecliptic of J2000.0
*******************************************************************************
Initial IAU76/J2000 heliocentric ecliptic osculating elements (au, days, deg.):
 EPOCH=  2453667.5 ! 2005-Oct-24.0000000 (TDB)    RMSW= n.a.                  
  EC= .9302970589572456   QR= .649399439103871    TP= 2453654.0373723088      
  OM= 25.42228787729548   W= 41.44353425389921    IN= 160.0361800933672       
 Equivalent ICRF heliocentric equatorial cartesian coordinates (au, au/d):
  X= 4.420344546390508E-01  Y=-5.493135768382696E-01  Z= 1.505229407593657E-02
 VX=-1.597934570606056E-02 VY=-2.306001896013712E-02 VZ=-4.507052663854282E-03
Comet physical (GM= km^3/s^2; RAD= km):                                        
  GM= n.a.                RAD= n.a.                                           
  M1=  15.4     M2=  n.a.     k1=  10.    k2= n.a.     PHCOF= n.a.            
*******************************************************************************
           JDTDB,            Calendar Date (TDB),                     LT,                     RG,                     RR,
**************************************************************************************************************************
$$SOE
2453470.500000000, A.D. 2005-Apr-10 00:00:00.0000,  1.665988562533199E-02,  2.884569776992965E+00, -1.135001905426829E-02,
2453477.500000000, A.D. 2005-Apr-17 00:00:00.0000,  1.619814135119722E-02,  2.804621234258466E+00, -1.149323460882497E-02,
2453484.500000000, A.D. 2005-Apr-24 00:00:00.0000,  1.573050711223868E-02,  2.723652875728091E+00, -1.164142842042126E-02,
2453491.500000000, A.D. 2005-May-01 00:00:00.0000,  1.525677767903789E-02,  2.641629167029564E+00, -1.179479412806530E-02,
2453498.500000000, A.D. 2005-May-08 00:00:00.0000,  1.477674037557472E-02,  2.558513284451502E+00, -1.195350445179275E-02,
2453505.500000000, A.D. 2005-May-15 00:00:00.0000,  1.429017620430298E-02,  2.474267309744210E+00, -1.211769646940450E-02,
2453512.500000000, A.D. 2005-May-22 00:00:00.0000,  1.379686169098339E-02,  2.388852549542617E+00, -1.228745033059544E-02,
2453519.500000000, A.D. 2005-May-29 00:00:00.0000,  1.329657177246866E-02,  2.302230035370759E+00, -1.246275827846719E-02,
2453526.500000000, A.D. 2005-Jun-05 00:00:00.0000,  1.278908421940175E-02,  2.214361289408240E+00, -1.264347854857048E-02,
2453533.500000000, A.D. 2005-Jun-12 00:00:00.0000,  1.227418634736229E-02,  2.125209486489220E+00, -1.282926728605692E-02,
2453540.500000000, A.D. 2005-Jun-19 00:00:00.0000,  1.175168501718038E-02,  2.034741185603071E+00, -1.301948238386012E-02,
2453547.500000000, A.D. 2005-Jun-26 00:00:00.0000,  1.122142137930608E-02,  1.942928882802818E+00, -1.321304029229505E-02,
2453554.500000000, A.D. 2005-Jul-03 00:00:00.0000,  1.068329285464723E-02,  1.849754817069231E+00, -1.340819618977754E-02,
2453561.500000000, A.D. 2005-Jul-10 00:00:00.0000,  1.013728614674555E-02,  1.755216686191924E+00, -1.360221001914075E-02,
2453568.500000000, A.D. 2005-Jul-17 00:00:00.0000,  9.583527104860727E-03,  1.659336280294737E+00, -1.379083280143562E-02,
2453575.500000000, A.D. 2005-Jul-24 00:00:00.0000,  9.022356733894232E-03,  1.562172642546075E+00, -1.396750379678681E-02,
2453582.500000000, A.D. 2005-Jul-31 00:00:00.0000,  8.454448387327241E-03,  1.463842360487099E+00, -1.412207774378479E-02,
2453589.500000000, A.D. 2005-Aug-07 00:00:00.0000,  7.880990713061677E-03,  1.364551242122164E+00, -1.423878102372045E-02,
2453596.500000000, A.D. 2005-Aug-14 00:00:00.0000,  7.303976776787160E-03,  1.264644376077994E+00, -1.429289809039101E-02,
2453603.500000000, A.D. 2005-Aug-21 00:00:00.0000,  6.726665663541727E-03,  1.164686055436358E+00, -1.424538887837587E-02,
2453610.500000000, A.D. 2005-Aug-28 00:00:00.0000,  6.154322592774629E-03,  1.065587924684742E+00, -1.403427298147188E-02,
2453617.500000000, A.D. 2005-Sep-04 00:00:00.0000,  5.595394462153742E-03,  9.688125188170883E-01, -1.356154621331147E-02,
2453624.500000000, A.D. 2005-Sep-11 00:00:00.0000,  5.063303602794311E-03,  8.766838424239788E-01, -1.267613717940129E-02,
2453631.500000000, A.D. 2005-Sep-18 00:00:00.0000,  4.578890552606234E-03,  7.928103227865557E-01, -1.116166724708054E-02,
2453638.500000000, A.D. 2005-Sep-25 00:00:00.0000,  4.172764390246105E-03,  7.224917575853123E-01, -8.761877068185927E-03,
2453645.500000000, A.D. 2005-Oct-02 00:00:00.0000,  3.884736152883069E-03,  6.726212142272806E-01, -5.312476504474594E-03,
2453652.500000000, A.D. 2005-Oct-09 00:00:00.0000,  3.755069833956830E-03,  6.501701870665759E-01, -1.001951974380822E-03,
2453659.500000000, A.D. 2005-Oct-16 00:00:00.0000,  3.806305203900773E-03,  6.590413163754489E-01,  3.495081024508272E-03,
2453666.500000000, A.D. 2005-Oct-23 00:00:00.0000,  4.029159742850598E-03,  6.976273836617035E-01,  7.376126477686006E-03,
2453673.500000000, A.D. 2005-Oct-30 00:00:00.0000,  4.388663868383605E-03,  7.598735934219898E-01,  1.023073977254906E-02,
2453680.500000000, A.D. 2005-Nov-06 00:00:00.0000,  4.843072104929951E-03,  8.385519406229566E-01,  1.210318063626381E-02,
2453687.500000000, A.D. 2005-Nov-13 00:00:00.0000,  5.357314365212593E-03,  9.275902278851654E-01,  1.323451552339162E-02,
2453694.500000000, A.D. 2005-Nov-20 00:00:00.0000,  5.906475828738145E-03,  1.022674587766145E+00,  1.386616567603035E-02,
2453701.500000000, A.D. 2005-Nov-27 00:00:00.0000,  6.474204471601957E-03,  1.120973755093445E+00,  1.417743129728747E-02,
2453708.500000000, A.D. 2005-Dec-04 00:00:00.0000,  7.050130997154205E-03,  1.220692341807541E+00,  1.428743448793924E-02,
2453715.500000000, A.D. 2005-Dec-11 00:00:00.0000,  7.627770172345713E-03,  1.320707464614326E+00,  1.427207604209967E-02,
2453722.500000000, A.D. 2005-Dec-18 00:00:00.0000,  8.203094623380510E-03,  1.420321805357254E+00,  1.417917319452472E-02,
2453729.500000000, A.D. 2005-Dec-25 00:00:00.0000,  8.773625819529195E-03,  1.519106219743614E+00,  1.403891252381823E-02,
2453736.500000000, A.D. 2006-Jan-01 00:00:00.0000,  9.337866060246816E-03,  1.616801388962691E+00,  1.387048895445749E-02,
2453743.500000000, A.D. 2006-Jan-08 00:00:00.0000,  9.894943724115698E-03,  1.713256396444293E+00,  1.368620845361566E-02,
2453750.500000000, A.D. 2006-Jan-15 00:00:00.0000,  1.044438989685088E-02,  1.808390052196792E+00,  1.349401327031518E-02,
2453757.500000000, A.D. 2006-Jan-22 00:00:00.0000,  1.098599607225403E-02,  1.902166254491070E+00,  1.329904699348692E-02,
2453764.500000000, A.D. 2006-Jan-29 00:00:00.0000,  1.151972236094901E-02,  1.994578096695748E+00,  1.310463604559343E-02,
2453771.500000000, A.D. 2006-Feb-05 00:00:00.0000,  1.204563757192664E-02,  2.085637492718267E+00,  1.291291366263741E-02,
2453778.500000000, A.D. 2006-Feb-12 00:00:00.0000,  1.256387968764205E-02,  2.175368333480132E+00,  1.272522207571228E-02,
2453785.500000000, A.D. 2006-Feb-19 00:00:00.0000,  1.307462955834459E-02,  2.263801932231341E+00,  1.254237473658661E-02,
2453792.500000000, A.D. 2006-Feb-26 00:00:00.0000,  1.357809325049568E-02,  2.350973968273657E+00,  1.236482891765214E-02,
2453799.500000000, A.D. 2006-Mar-05 00:00:00.0000,  1.407449016241254E-02,  2.436922429248129E+00,  1.219280320022687E-02,
2453806.500000000, A.D. 2006-Mar-12 00:00:00.0000,  1.456404512986095E-02,  2.521686244260833E+00,  1.202635882484378E-02,
2453813.500000000, A.D. 2006-Mar-19 00:00:00.0000,  1.504698319741274E-02,  2.605304378571496E+00,  1.186545176614374E-02,
2453820.500000000, A.D. 2006-Mar-26 00:00:00.0000,  1.552352611140410E-02,  2.687815226368042E+00,  1.170996783271775E-02,
2453827.500000000, A.D. 2006-Apr-02 00:00:00.0000,  1.599389002267992E-02,  2.769256213009113E+00,  1.155974791692971E-02,
2453834.500000000, A.D. 2006-Apr-09 00:00:00.0000,  1.645828404920432E-02,  2.849663546147791E+00,  1.141460562878733E-02,
$$EOE
**************************************************************************************************************************
Coordinate system description:

 Ecliptic at the standard reference epoch

   Reference epoch: J2000.0
   X-Y plane: adopted Earth orbital plane at the reference epoch
              Note: obliquity of 84381.448 arcseconds (IAU76) wrt ICRF equator
   X-axis   : ICRF
   Z-axis   : perpendicular to the X-Y plane in the directional (+ or -) sense
              of Earth's north pole at the reference epoch.

 Symbol meaning [1 au= 149597870.700 km, 1 day= 86400.0 s]:

   JDTDB    Julian Day Number, Barycentric Dynamical Time
     LT     One-way down-leg Newtonian light-time (day)
     RG     Range; distance from coordinate center (au)
     RR     Range-rate; radial velocity wrt coord. center (au/day)

Geometric states/elements have no aberrations applied.


Computations by ...
    Solar System Dynamics Group, Horizons On-Line Ephemeris System
    4800 Oak Grove Drive, Jet Propulsion Laboratory
    Pasadena, CA  91109   USA
    Information  : https://ssd.jpl.nasa.gov/
    Documentation: https://ssd.jpl.nasa.gov/?horizons_doc
    Connect      : https://ssd.jpl.nasa.gov/?horizons (browser)
                   telnet ssd.jpl.nasa.gov 6775       (command-line)
                   e-mail command interface available
                   Script and CGI interfaces available
    Author       : Jon.D.Giorgini@jpl.nasa.gov
*******************************************************************************
